TDRS 3                  
1 19548U 88091B   22361.36438632 -.00000301  00000+0  00000+0 0  9995
2 19548  13.5735 349.8328 0039073 331.3176 217.0234  1.00276025112675
HST                     
1 20580U 90037B   22361.37370101  .00003252  00000+0  17665-3 0  9999
2 20580  28.4713 329.7112 0002288 320.8364 169.3063 15.11488474595429
TDRS 5                  
1 21639U 91054B   22361.33525799  .00000081  00000+0  00000+0 0  9994
2 21639  14.2221   3.1507 0025592 349.5215  56.2087  1.00267475115000
TDRS 6                  
1 22314U 93003B   22361.37142193 -.00000298  00000+0  00000+0 0  9999
2 22314  14.1423   6.4094 0006910 141.7950  35.4776  1.00270376109698
TDRS 7                  
1 23613U 95035B   22361.50884052 -.00000204  00000+0  00000+0 0  9998
2 23613  13.9031 357.1147 0024432  50.3850 316.4891  1.00270788100543
ISS (ZARYA)             
1 25544U 98067A   22361.56561618  .00010036  00000+0  18588-3 0  9994
2 25544  51.6432  98.6343 0005601 195.2810 288.5272 15.49637549375174
LANDSAT 7               
1 25682U 99020A   22361.37949461  .00000404  00000+0  93626-4 0  9997
2 25682  97.9547  41.9191 0001141  94.6775 265.4555 14.59868017260713
TERRA                   
1 25994U 99068A   22361.56380809  .00000439  00000+0  10323-3 0  9991
2 25994  98.1174  69.0429 0000721 195.0032 301.2645 14.58952781224639
TDRS 8                  
1 26388U 00034A   22361.06368719 -.00000236  00000+0  00000+0 0  9998
2 26388  10.6708  41.2177 0019132 330.5013 196.0266  1.00267318 82462
TIMED                   
1 26998U 01055B   22361.16030370  .00001018  00000+0  11204-3 0  9999
2 26998  74.0721 255.6347 0000487 252.0250 108.0878 14.89039050141685
TDRS 9                  
1 27389U 02011A   22361.54903389 -.00000289  00000+0  00000+0 0  9996
2 27389   9.4301  59.0566 0027043 294.6315 237.6084  1.00265884 77733
AQUA                    
1 27424U 02022A   22361.56308641  .00000843  00000+0  19550-3 0  9999
2 27424  98.2696 301.8319 0001368  49.8066  65.1577 14.57537356 98315
TDRS 10                 
1 27566U 02055A   22361.38619917  .00000088  00000+0  00000+0 0  9990
2 27566   8.5558  48.8672 0006414 312.1053  63.0113  1.00279774 73522
SORCE                   
1 27651U 03004A   22361.00842148  .00001724  00000+0  18654-3 0  9999
2 27651  39.9939 221.8826 0021809  24.0491 336.1313 14.90560799 81801
AURA                    
1 28376U 04026A   22361.52669503  .00000820  00000+0  19191-3 0  9991
2 28376  98.2317 302.2709 0001482  84.8931 275.2436 14.57129823981345
SWIFT                   
1 28485U 04047A   22361.40403701  .00005360  00000+0  31009-3 0  9994
2 28485  20.5584  34.5557 0010018 225.3360 134.6258 15.07878070992690
THEMIS A                
1 30580U 07004A   22361.23549059 -.00000148  00000+0 -68238-2 0  9991
2 30580  12.5171 324.4786 8355752 206.1006 104.1458  0.87833128 30139
THEMIS D                
1 30797U 07004D   22361.08119146 -.00000130  00000+0  00000+0 0  9994
2 30797   8.4577 312.4195 8307036 221.5236  67.7767  0.87835392 29930
THEMIS E                
1 30798U 07004E   22361.37181692 -.00000141  00000+0  00000+0 0  9994
2 30798   9.6461 328.6459 8303441 207.2575 151.3346  0.87859453 54778
AIM                     
1 31304U 07015A   22361.24007044  .00012660  00000+0  56514-3 0  9997
2 31304  97.8619 288.1137 0006190  73.4253 286.7661 15.21505248860466
FGRST (GLAST)           
1 33053U 08029A   22361.15163489  .00002345  00000+0  11314-3 0  9990
2 33053  25.5833 292.6213 0011455 253.5669 106.3607 15.12840507802904
WISE                    
1 36119U 09071A   22361.04840665  .00009674  00000+0  27473-3 0  9995
2 36119  97.2187  31.7220 0002166  22.8176 337.3164 15.36389184725045
TDRS 11                 
1 39070U 13004A   22361.60387676  .00000083  00000+0  00000+0 0  9993
2 39070   2.7855 352.0547 0003996  46.1379 101.1200  1.00279148 33981
TDRS 12                 
1 39504U 14004A   22361.48382413 -.00000268  00000+0  00000+0 0  9992
2 39504   3.7146 350.9757 0001800 257.2778 340.7331  1.00264256 31569
GPM-CORE                
1 39574U 14009C   22361.51804289  .00024855  00000+0  36049-3 0  9991
2 39574  64.9980 251.1644 0010079 263.1157  96.8843 15.55745821501648
MMS 1                   
1 40482U 15011A   22352.22810934 -.00000146  00000+0  00000+0 0  9999
2 40482  29.8011  90.0094 8901285  69.5007 203.2879  0.28521590 13820
MMS 2                   
1 40483U 15011B   22356.24325943 -.00000671  00000+0  00000+0 0  9990
2 40483  29.7312  89.5017 8899830  70.0074 255.4814  0.28536623 13893
MMS 3                   
1 40484U 15011C   22357.04893628 -.00000803  00000+0  00000+0 0  9997
2 40484  29.7219  89.3590 8899459  70.1364 338.2281  0.28525165 13576
MMS 4                   
1 40485U 15011D   22360.72653986 -.00000900  00000+0  00000+0 0  9996
2 40485  29.7512  89.3807 8936278  70.2091 355.7433  0.28540269 13826
TDRS 13                 
1 42915U 17047A   22361.34627753 -.00000097  00000+0  00000+0 0  9996
2 42915   4.2152 335.5514 0013179 114.9121 118.4584  1.00269872 19638
JPSS-1                  
1 43013U 17073A   22361.49177147  .00000103  00000+0  69662-4 0  9999
2 43013  98.7370 297.1750 0000875 116.8889 243.2377 14.19539053264616
